OBJECT_NAME,OBJECT_ID,EPOCH,MEAN_MOTION,ECCENTRICITY,INCLINATION,RA_OF_ASC_NODE,ARG_OF_PERICENTER,MEAN_ANOMALY,EPHEMERIS_TYPE,CLASSIFICATION_TYPE,NORAD_CAT_ID,ELEMENT_SET_NO,REV_AT_EPOCH,BSTAR,MEAN_MOTION_DOT,MEAN_MOTION_DDOT
BEIDOU-3 M26 (C48),2023-207B,2026-06-16T00:32:54.959712,1.86229663,.00031605,55.7540,62.3289,319.7508,40.2636,0,U,58655,999,1680,0,-.53E-6,0
GSAT0225 (GALILEO 29),2024-079A,2026-06-15T08:10:41.065248,1.70473781,.0001559,55.1186,101.1317,303.3470,229.1256,0,U,59598,999,1328,0,-.14E-6,0
GSAT0227 (GALILEO 30),2024-079C,2026-06-14T01:40:40.530720,1.70473921,.00020513,55.1133,101.1658,47.7236,312.2495,0,U,59600,999,1331,0,-.1E-6,0
GSAT0232 (GALILEO 32),2024-167A,2026-06-14T10:07:45.895008,1.70474154,.00062682,55.1857,221.3898,227.1556,204.5150,0,U,61182,999,1083,0,.6E-6,0
GSAT0226 (GALILEO 31),2024-167B,2026-06-15T10:14:48.846336,1.70474159,.00029649,55.1841,221.3693,227.6875,192.0490,0,U,61183,999,1082,0,.55E-6,0
BEIDOU-3 M25 (C47),2024-168B,2026-06-15T21:58:48.893952,1.86229777,.0002971,54.4746,302.2864,300.8355,104.7824,0,U,61186,999,1176,0,-.7E-6,0
BEIDOU-3 M27 (C49),2024-168C,2026-06-15T15:34:51.865824,1.86229845,.00015794,54.4702,302.2787,51.2024,310.6804,0,U,61187,999,923,0,-.7E-6,0
GPS BIII-7  (PRN 01),2024-242A,2026-06-13T08:49:23.989728,2.00571230,.00171883,54.8503,334.3363,3.9293,7.0837,0,U,62339,999,1118,0,-.75E-6,0
QZS-6 (QZSS/PRN 200),2025-023A,2026-06-16T00:30:00.521568,1.00270901,.00017026,0.0510,69.0790,21.7291,271.5138,0,U,62876,999,493,0,-.233E-5,0
COSMOS 2584 (704K),2025-042A,2026-06-08T05:23:06.412992,2.13103875,.00058283,65.0792,73.1067,228.4476,131.5246,0,U,63130,999,985,0,-.15E-6,0
GPS BIII-8  (PRN 21),2025-116A,2026-06-12T09:20:58.319232,2.00576015,.00085633,55.2312,31.3239,338.8161,228.7168,0,U,64202,999,777,0,-.65E-6,0
COSMOS 2596 (708K),2025-206B,2026-06-16T01:13:18.647328,2.13100526,.00109971,64.6354,315.0247,311.9042,48.7048,0,U,65590,999,589,0,-.56E-6,0
GSAT0233 (GALILEO 33),2025-302A,2026-06-15T22:18:03.001824,1.70473864,.0000839,54.3356,102.1668,227.0567,237.4220,0,U,67160,999,310,0,-.14E-6,0
GSAT0234 (GALILEO 34),2025-302C,2026-06-14T13:55:34.266144,1.70473883,.0003043,54.3363,102.2045,308.4769,228.2268,0,U,67162,999,313,0,-.11E-6,0
GPS BIII-9  (PRN 20),2026-017A,2026-06-13T05:00:40.049568,2.00571123,.00221476,55.0859,88.9150,258.0590,101.6773,0,U,67588,999,43153,0,-.28E-6,0
GPS BIII-10 (PRN 13),2026-087A,2026-06-07T10:32:17.680992,2.00569573,.00209312,54.9638,208.1735,107.2972,251.8874,0,U,68791,999,63,0,.57E-6,0
